start=new Date('2021-10-22T00:00:00.000Z').valueOf();
sats=[{"MEAN_ANOMALY":"290.1267","FILE":"3176553","SITE":"AFETR","OBJECT_ID":"2020-073AM","MEAN_MOTION_DDOT":"0.0000000000000","GP_ID":"187810909","OBJECT_TYPE":"PAYLOAD","NORAD_CAT_ID":"46705","COUNTRY_CODE":"US","CLASSIFICATION_TYPE":"U","INCLINATION":"53.0540","BSTAR":"-0.00011176000000","MEAN_ELEMENT_THEORY":"SGP4","REF_FRAME":"TEME","TLE_LINE1":"1 46705U 20073AM  21294.57697363 -.00001946  00000-0 -11176-3 0  9999","REV_AT_EPOCH":"5574","APOAPSIS":"548.321","MEAN_MOTION_DOT":"-0.00001946","RA_OF_ASC_NODE":"239.7976","TIME_SYSTEM":"UTC","EPHEMERIS_TYPE":"0","ELEMENT_SET_NO":"999","PERIAPSIS":"546.126","LAUNCH_DATE":"2020-10-18","EPOCH":"2021-10-21T13:50:50.521632","SEMIMAJOR_AXIS":"6925.359","TLE_LINE2":"2 46705  53.0540 239.7976 0001585  69.9892 290.1267 15.06396683 55741","ARG_OF_PERICENTER":"69.9892","MEAN_MOTION":"15.06396683","DECAY_DATE":null,"ECCENTRICITY":"0.00015850","RCS_SIZE":"LARGE","OBJECT_NAME":"STARLINK-1805","PERIOD":"95.592","CENTER_NAME":"EARTH"},{"OBJECT_ID":"2020-073AN","MEAN_ANOMALY":"287.9019","SITE":"AFETR","FILE":"3176920","GP_ID":"187841302","MEAN_MOTION_DDOT":"0.0000000000000","CLASSIFICATION_TYPE":"U","OBJECT_TYPE":"PAYLOAD","COUNTRY_CODE":"US","NORAD_CAT_ID":"46706","MEAN_ELEMENT_THEORY":"SGP4","REF_FRAME":"TEME","BSTAR":"0.00003123000000","INCLINATION":"53.0535","EPHEMERIS_TYPE":"0","TIME_SYSTEM":"UTC","RA_OF_ASC_NODE":"223.1303","REV_AT_EPOCH":"5601","TLE_LINE1":"1 46706U 20073AN  21294.94878311  .00000184  00000-0  31230-4 0  9990","MEAN_MOTION_DOT":"0.00000184","APOAPSIS":"548.256","TLE_LINE2":"2 46706  53.0535 223.1303 0001462  72.2129 287.9019 15.06390210 56011","MEAN_MOTION":"15.06390210","ARG_OF_PERICENTER":"72.2129","DECAY_DATE":null,"PERIAPSIS":"546.231","ELEMENT_SET_NO":"999","LAUNCH_DATE":"2020-10-18","SEMIMAJOR_AXIS":"6925.379","EPOCH":"2021-10-21T22:46:14.860704","RCS_SIZE":"LARGE","ECCENTRICITY":"0.00014620","PERIOD":"95.593","CENTER_NAME":"EARTH","OBJECT_NAME":"STARLINK-1807"},{"PERIAPSIS":"545.085","ELEMENT_SET_NO":"999","LAUNCH_DATE":"2020-10-18","SEMIMAJOR_AXIS":"6925.367","EPOCH":"2021-10-21T22:32:58.413408","MEAN_MOTION":"15.06394080","TLE_LINE2":"2 46707  53.0530 203.1809 0003100 173.6699 186.4329 15.06394080 56291","ARG_OF_PERICENTER":"173.6699","DECAY_DATE":null,"REV_AT_EPOCH":"5629","TLE_LINE1":"1 46707U 20073AP  21294.93956497  .00001149  00000-0  96043-4 0  9997","APOAPSIS":"549.379","MEAN_MOTION_DOT":"0.00001149","TIME_SYSTEM":"UTC","EPHEMERIS_TYPE":"0","RA_OF_ASC_NODE":"203.1809","OBJECT_NAME":"STARLINK-1808","PERIOD":"95.593","CENTER_NAME":"EARTH","ECCENTRICITY":"0.00031000","RCS_SIZE":"LARGE","MEAN_MOTION_DDOT":"0.0000000000000","GP_ID":"187839556","MEAN_ANOMALY":"186.4329","SITE":"AFETR","FILE":"3176920","OBJECT_ID":"2020-073AP","BSTAR":"0.00009604300000","INCLINATION":"53.0530","MEAN_ELEMENT_THEORY":"SGP4","REF_FRAME":"TEME","OBJECT_TYPE":"PAYLOAD","COUNTRY_CODE":"US","NORAD_CAT_ID":"46707","CLASSIFICATION_TYPE":"U"},{"PERIOD":"93.013","CENTER_NAME":"EARTH","OBJECT_NAME":"STARLINK-1809","RCS_SIZE":"LARGE","ECCENTRICITY":"0.00006830","MEAN_MOTION":"15.48174329","TLE_LINE2":"2 46708  53.0539 197.4544 0000683 112.7457 247.3623 15.48174329 56372","ARG_OF_PERICENTER":"112.7457","DECAY_DATE":null,"ELEMENT_SET_NO":"999","PERIAPSIS":"421.604","EPOCH":"2021-10-21T22:29:30.443424","LAUNCH_DATE":"2020-10-18","SEMIMAJOR_AXIS":"6800.204","RA_OF_ASC_NODE":"197.4544","TIME_SYSTEM":"UTC","EPHEMERIS_TYPE":"0","REV_AT_EPOCH":"5637","TLE_LINE1":"1 46708U 20073AQ  21294.93715791  .00053201  00000-0  99676-3 0  9998","APOAPSIS":"422.533","MEAN_MOTION_DOT":"0.00053201","MEAN_ELEMENT_THEORY":"SGP4","REF_FRAME":"TEME","INCLINATION":"53.0539","BSTAR":"0.00099676000000","CLASSIFICATION_TYPE":"U","OBJECT_TYPE":"PAYLOAD","NORAD_CAT_ID":"46708","COUNTRY_CODE":"US","GP_ID":"187840306","MEAN_MOTION_DDOT":"0.0000000000000","OBJECT_ID":"2020-073AQ","MEAN_ANOMALY":"247.3623","FILE":"3176920","SITE":"AFETR"},{"MEAN_MOTION":"15.06410408","TLE_LINE2":"2 46709  53.0535 240.8508 0001737  71.7443 288.3735 15.06410408 55702","ARG_OF_PERICENTER":"71.7443","DECAY_DATE":null,"ELEMENT_SET_NO":"999","PERIAPSIS":"545.979","LAUNCH_DATE":"2020-10-18","EPOCH":"2021-10-21T08:09:45.317376","SEMIMAJOR_AXIS":"6925.317","EPHEMERIS_TYPE":"0","TIME_SYSTEM":"UTC","RA_OF_ASC_NODE":"240.8508","REV_AT_EPOCH":"5570","TLE_LINE1":"1 46709U 20073AR  21294.34010784 -.00000788  00000-0 -34008-4 0  9997","APOAPSIS":"548.385","MEAN_MOTION_DOT":"-0.00000788","PERIOD":"95.591","CENTER_NAME":"EARTH","OBJECT_NAME":"STARLINK-1810","RCS_SIZE":"LARGE","ECCENTRICITY":"0.00017370","GP_ID":"187810410","MEAN_MOTION_DDOT":"0.0000000000000","OBJECT_ID":"2020-073AR","MEAN_ANOMALY":"288.3735","SITE":"AFETR","FILE":"3176553","MEAN_ELEMENT_THEORY":"SGP4","REF_FRAME":"TEME","BSTAR":"-0.00003400800000","INCLINATION":"53.0535","CLASSIFICATION_TYPE":"U","OBJECT_TYPE":"PAYLOAD","COUNTRY_CODE":"US","NORAD_CAT_ID":"46709"},{"REF_FRAME":"TEME","MEAN_ELEMENT_THEORY":"SGP4","INCLINATION":"53.0549","BSTAR":"-0.00007782600000","CLASSIFICATION_TYPE":"U","NORAD_CAT_ID":"46710","COUNTRY_CODE":"US","OBJECT_TYPE":"PAYLOAD","GP_ID":"187816878","MEAN_MOTION_DDOT":"0.0000000000000","OBJECT_ID":"2020-073AS","FILE":"3176752","SITE":"AFETR","MEAN_ANOMALY":"292.6307","CENTER_NAME":"EARTH","PERIOD":"95.592","OBJECT_NAME":"STARLINK-1811","RCS_SIZE":"LARGE","ECCENTRICITY":"0.00017160","DECAY_DATE":null,"TLE_LINE2":"2 46710  53.0549 239.8461 0001716  67.4864 292.6307 15.06397862 56220","ARG_OF_PERICENTER":"67.4864","MEAN_MOTION":"15.06397862","LAUNCH_DATE":"2020-10-18","SEMIMAJOR_AXIS":"6925.355","EPOCH":"2021-10-21T13:40:13.618848","PERIAPSIS":"546.032","ELEMENT_SET_NO":"999","RA_OF_ASC_NODE":"239.8461","TIME_SYSTEM":"UTC","EPHEMERIS_TYPE":"0","APOAPSIS":"548.409","MEAN_MOTION_DOT":"-0.00001441","REV_AT_EPOCH":"5622","TLE_LINE1":"1 46710U 20073AS  21294.56960207 -.00001441  00000-0 -77826-4 0  9999"},{"APOAPSIS":"548.338","MEAN_MOTION_DOT":"-0.00000102","TLE_LINE1":"1 46711U 20073AT  21294.54331802 -.00000102  00000-0  12043-4 0  9993","REV_AT_EPOCH":"5595","TIME_SYSTEM":"UTC","EPHEMERIS_TYPE":"0","RA_OF_ASC_NODE":"224.9610","LAUNCH_DATE":"2020-10-18","SEMIMAJOR_AXIS":"6925.355","EPOCH":"2021-10-21T13:02:22.676928","PERIAPSIS":"546.102","ELEMENT_SET_NO":"999","DECAY_DATE":null,"TLE_LINE2":"2 46711  53.0543 224.9610 0001614  80.8082 279.3090 15.06397892 55957","ARG_OF_PERICENTER":"80.8082","MEAN_MOTION":"15.06397892","ECCENTRICITY":"0.00016140","RCS_SIZE":"LARGE","OBJECT_NAME":"STARLINK-1813","CENTER_NAME":"EARTH","PERIOD":"95.592","SITE":"AFETR","FILE":"3176553","MEAN_ANOMALY":"279.3090","OBJECT_ID":"2020-073AT","MEAN_MOTION_DDOT":"0.0000000000000","GP_ID":"187811910","COUNTRY_CODE":"US","NORAD_CAT_ID":"46711","OBJECT_TYPE":"PAYLOAD","CLASSIFICATION_TYPE":"U","BSTAR":"0.00001204300000","INCLINATION":"53.0543","REF_FRAME":"TEME","MEAN_ELEMENT_THEORY":"SGP4"},{"OBJECT_ID":"2020-073AU","MEAN_ANOMALY":"288.4268","FILE":"3176920","SITE":"AFETR","GP_ID":"187839807","MEAN_MOTION_DDOT":"0.0000000000000","CLASSIFICATION_TYPE":"U","OBJECT_TYPE":"PAYLOAD","NORAD_CAT_ID":"46712","COUNTRY_CODE":"US","MEAN_ELEMENT_THEORY":"SGP4","REF_FRAME":"TEME","INCLINATION":"53.0552","BSTAR":"0.00013506000000","RA_OF_ASC_NODE":"223.0352","TIME_SYSTEM":"UTC","EPHEMERIS_TYPE":"0","REV_AT_EPOCH":"5601","TLE_LINE1":"1 46712U 20073AU  21294.97363651  .00001730  00000-0  13506-3 0  9999","APOAPSIS":"548.329","MEAN_MOTION_DOT":"0.00001730","ARG_OF_PERICENTER":"71.6893","TLE_LINE2":"2 46712  53.0552 223.0352 0001582  71.6893 288.4268 15.06393527 56010","MEAN_MOTION":"15.06393527","DECAY_DATE":null,"ELEMENT_SET_NO":"999","PERIAPSIS":"546.138","LAUNCH_DATE":"2020-10-18","SEMIMAJOR_AXIS":"6925.368","EPOCH":"2021-10-21T23:22:02.194464","RCS_SIZE":"LARGE","ECCENTRICITY":"0.00015820","PERIOD":"95.593","CENTER_NAME":"EARTH","OBJECT_NAME":"STARLINK-1814"},{"RCS_SIZE":"LARGE","ECCENTRICITY":"0.00016270","CENTER_NAME":"EARTH","PERIOD":"95.593","OBJECT_NAME":"STARLINK-1815","RA_OF_ASC_NODE":"223.2776","TIME_SYSTEM":"UTC","EPHEMERIS_TYPE":"0","APOAPSIS":"548.362","MEAN_MOTION_DOT":"-0.00000178","TLE_LINE1":"1 46713U 20073AV  21294.91931288 -.00000178  00000-0  69471-5 0  9991","REV_AT_EPOCH":"5600","DECAY_DATE":null,"ARG_OF_PERICENTER":"70.8733","TLE_LINE2":"2 46713  53.0551 223.2776 0001627  70.8733 289.2432 15.06392822 56004","MEAN_MOTION":"15.06392822","EPOCH":"2021-10-21T22:03:48.632832","LAUNCH_DATE":"2020-10-18","SEMIMAJOR_AXIS":"6925.371","ELEMENT_SET_NO":"999","PERIAPSIS":"546.109","CLASSIFICATION_TYPE":"U","NORAD_CAT_ID":"46713","COUNTRY_CODE":"US","OBJECT_TYPE":"PAYLOAD","REF_FRAME":"TEME","MEAN_ELEMENT_THEORY":"SGP4","INCLINATION":"53.0551","BSTAR":"0.00000694710000","OBJECT_ID":"2020-073AV","FILE":"3176920","SITE":"AFETR","MEAN_ANOMALY":"289.2432","GP_ID":"187841058","MEAN_MOTION_DDOT":"0.0000000000000"},{"INCLINATION":"53.0555","BSTAR":"-0.00017308000000","REF_FRAME":"TEME","MEAN_ELEMENT_THEORY":"SGP4","NORAD_CAT_ID":"46714","COUNTRY_CODE":"US","OBJECT_TYPE":"PAYLOAD","CLASSIFICATION_TYPE":"U","MEAN_MOTION_DDOT":"0.0000000000000","GP_ID":"187811157","FILE":"3176553","SITE":"AFETR","MEAN_ANOMALY":"287.6199","OBJECT_ID":"2020-073AW","OBJECT_NAME":"STARLINK-1816","CENTER_NAME":"EARTH","PERIOD":"95.593","ECCENTRICITY":"0.00016690","RCS_SIZE":"LARGE","LAUNCH_DATE":"2020-10-18","SEMIMAJOR_AXIS":"6925.370","EPOCH":"2021-10-21T12:14:38.268960","PERIAPSIS":"546.079","ELEMENT_SET_NO":"999","DECAY_DATE":null,"ARG_OF_PERICENTER":"72.4972","TLE_LINE2":"2 46714  53.0555 225.1021 0001669  72.4972 287.6199 15.06393092 55946","MEAN_MOTION":"15.06393092","APOAPSIS":"548.391","MEAN_MOTION_DOT":"-0.00002858","TLE_LINE1":"1 46714U 20073AW  21294.51016515 -.00002858  00000-0 -17308-3 0  9993","REV_AT_EPOCH":"5594","RA_OF_ASC_NODE":"225.1021","TIME_SYSTEM":"UTC","EPHEMERIS_TYPE":"0"}];
